CCSDS_OMM_VERS = 2.0
CREATION_DATE  = 
ORIGINATOR     = 

OBJECT_NAME    = GUOWANG GROUP 20 OBJECT A
OBJECT_ID      = 2026-047A
CENTER_NAME    = EARTH
REF_FRAME      = TEME
TIME_SYSTEM    = UTC
MEAN_ELEMENT_THEORY = SGP/SGP4

EPOCH          = 2026-03-19T01:19:59.034432
MEAN_MOTION    = 14.05638332
ECCENTRICITY   = .00088996
INCLINATION    = 50.0054
RA_OF_ASC_NODE = 32.2608
ARG_OF_PERICENTER = 282.8383
MEAN_ANOMALY   = 77.1528

EPHEMERIS_TYPE = 0
CLASSIFICATION_TYPE = U
NORAD_CAT_ID   = 68129
ELEMENT_SET_NO = 999
REV_AT_EPOCH   = 88
BSTAR          = .2225374E-5
MEAN_MOTION_DOT = -.148E-5
MEAN_MOTION_DDOT = 0

CCSDS_OMM_VERS = 2.0
CREATION_DATE  = 
ORIGINATOR     = 

OBJECT_NAME    = GUOWANG GROUP 20 OBJECT B
OBJECT_ID      = 2026-047B
CENTER_NAME    = EARTH
REF_FRAME      = TEME
TIME_SYSTEM    = UTC
MEAN_ELEMENT_THEORY = SGP/SGP4

EPOCH          = 2026-03-19T01:19:13.162080
MEAN_MOTION    = 14.05761022
ECCENTRICITY   = .00075469
INCLINATION    = 50.0044
RA_OF_ASC_NODE = 32.2582
ARG_OF_PERICENTER = 277.9720
MEAN_ANOMALY   = 82.0329

EPHEMERIS_TYPE = 0
CLASSIFICATION_TYPE = U
NORAD_CAT_ID   = 68130
ELEMENT_SET_NO = 999
REV_AT_EPOCH   = 87
BSTAR          = .2531813E-5
MEAN_MOTION_DOT = -.148E-5
MEAN_MOTION_DDOT = 0

CCSDS_OMM_VERS = 2.0
CREATION_DATE  = 
ORIGINATOR     = 

OBJECT_NAME    = GUOWANG GROUP 20 OBJECT C
OBJECT_ID      = 2026-047C
CENTER_NAME    = EARTH
REF_FRAME      = TEME
TIME_SYSTEM    = UTC
MEAN_ELEMENT_THEORY = SGP/SGP4

EPOCH          = 2026-03-19T14:57:50.348160
MEAN_MOTION    = 14.05810373
ECCENTRICITY   = .00081141
INCLINATION    = 50.0037
RA_OF_ASC_NODE = 29.9293
ARG_OF_PERICENTER = 287.0160
MEAN_ANOMALY   = 72.9856

EPHEMERIS_TYPE = 0
CLASSIFICATION_TYPE = U
NORAD_CAT_ID   = 68131
ELEMENT_SET_NO = 999
REV_AT_EPOCH   = 96
BSTAR          = .243655E-5
MEAN_MOTION_DOT = -.148E-5
MEAN_MOTION_DDOT = 0

CCSDS_OMM_VERS = 2.0
CREATION_DATE  = 
ORIGINATOR     = 

OBJECT_NAME    = GUOWANG GROUP 20 OBJECT D
OBJECT_ID      = 2026-047D
CENTER_NAME    = EARTH
REF_FRAME      = TEME
TIME_SYSTEM    = UTC
MEAN_ELEMENT_THEORY = SGP/SGP4

EPOCH          = 2026-03-19T03:00:48.676032
MEAN_MOTION    = 14.05881519
ECCENTRICITY   = .0008434
INCLINATION    = 50.0078
RA_OF_ASC_NODE = 31.9684
ARG_OF_PERICENTER = 289.4802
MEAN_ANOMALY   = 70.5192

EPHEMERIS_TYPE = 0
CLASSIFICATION_TYPE = U
NORAD_CAT_ID   = 68132
ELEMENT_SET_NO = 999
REV_AT_EPOCH   = 88
BSTAR          = .3692038E-5
MEAN_MOTION_DOT = -.146E-5
MEAN_MOTION_DDOT = 0

CCSDS_OMM_VERS = 2.0
CREATION_DATE  = 
ORIGINATOR     = 

OBJECT_NAME    = GUOWANG GROUP 20 OBJECT E
OBJECT_ID      = 2026-047E
CENTER_NAME    = EARTH
REF_FRAME      = TEME
TIME_SYSTEM    = UTC
MEAN_ELEMENT_THEORY = SGP/SGP4

EPOCH          = 2026-03-17T01:32:12.575616
MEAN_MOTION    = 14.05931996
ECCENTRICITY   = .00068308
INCLINATION    = 50.0041
RA_OF_ASC_NODE = 40.3867
ARG_OF_PERICENTER = 274.9069
MEAN_ANOMALY   = 85.1056

EPHEMERIS_TYPE = 0
CLASSIFICATION_TYPE = U
NORAD_CAT_ID   = 68133
ELEMENT_SET_NO = 999
REV_AT_EPOCH   = 60
BSTAR          = .463008E-5
MEAN_MOTION_DOT = -.145E-5
MEAN_MOTION_DDOT = 0

CCSDS_OMM_VERS = 2.0
CREATION_DATE  = 
ORIGINATOR     = 

OBJECT_NAME    = GUOWANG GROUP 20 OBJECT F
OBJECT_ID      = 2026-047F
CENTER_NAME    = EARTH
REF_FRAME      = TEME
TIME_SYSTEM    = UTC
MEAN_ELEMENT_THEORY = SGP/SGP4

EPOCH          = 2026-03-19T23:27:41.427648
MEAN_MOTION    = 14.06079851
ECCENTRICITY   = .0006391
INCLINATION    = 50.0091
RA_OF_ASC_NODE = 28.4795
ARG_OF_PERICENTER = 289.3722
MEAN_ANOMALY   = 70.6492

EPHEMERIS_TYPE = 0
CLASSIFICATION_TYPE = U
NORAD_CAT_ID   = 68134
ELEMENT_SET_NO = 999
REV_AT_EPOCH   = 100
BSTAR          = .20813E-5
MEAN_MOTION_DOT = -.149E-5
MEAN_MOTION_DDOT = 0

CCSDS_OMM_VERS = 2.0
CREATION_DATE  = 
ORIGINATOR     = 

OBJECT_NAME    = GUOWANG GROUP 20 OBJECT G
OBJECT_ID      = 2026-047G
CENTER_NAME    = EARTH
REF_FRAME      = TEME
TIME_SYSTEM    = UTC
MEAN_ELEMENT_THEORY = SGP/SGP4

EPOCH          = 2026-03-20T06:17:49.605216
MEAN_MOTION    = 14.05440810
ECCENTRICITY   = .0006162
INCLINATION    = 49.9980
RA_OF_ASC_NODE = 27.3328
ARG_OF_PERICENTER = 292.8253
MEAN_ANOMALY   = 67.2001

EPHEMERIS_TYPE = 0
CLASSIFICATION_TYPE = U
NORAD_CAT_ID   = 68135
ELEMENT_SET_NO = 999
REV_AT_EPOCH   = 105
BSTAR          = .10342E-3
MEAN_MOTION_DOT = .17E-6
MEAN_MOTION_DDOT = 0

CCSDS_OMM_VERS = 2.0
CREATION_DATE  = 
ORIGINATOR     = 

OBJECT_NAME    = GUOWANG GROUP 20 OBJECT H
OBJECT_ID      = 2026-047H
CENTER_NAME    = EARTH
REF_FRAME      = TEME
TIME_SYSTEM    = UTC
MEAN_ELEMENT_THEORY = SGP/SGP4

EPOCH          = 2026-03-18T23:34:26.844960
MEAN_MOTION    = 14.06144171
ECCENTRICITY   = .00075099
INCLINATION    = 50.0089
RA_OF_ASC_NODE = 32.5476
ARG_OF_PERICENTER = 297.2561
MEAN_ANOMALY   = 62.7580

EPHEMERIS_TYPE = 0
CLASSIFICATION_TYPE = U
NORAD_CAT_ID   = 68136
ELEMENT_SET_NO = 999
REV_AT_EPOCH   = 86
BSTAR          = .4138608E-5
MEAN_MOTION_DOT = -.146E-5
MEAN_MOTION_DDOT = 0

CCSDS_OMM_VERS = 2.0
CREATION_DATE  = 
ORIGINATOR     = 

OBJECT_NAME    = GUOWANG GROUP 20 OBJECT J
OBJECT_ID      = 2026-047J
CENTER_NAME    = EARTH
REF_FRAME      = TEME
TIME_SYSTEM    = UTC
MEAN_ELEMENT_THEORY = SGP/SGP4

EPOCH          = 2026-03-18T23:33:39.242880
MEAN_MOTION    = 14.06269806
ECCENTRICITY   = .00059129
INCLINATION    = 50.0089
RA_OF_ASC_NODE = 32.5436
ARG_OF_PERICENTER = 296.0035
MEAN_ANOMALY   = 64.0262

EPHEMERIS_TYPE = 0
CLASSIFICATION_TYPE = U
NORAD_CAT_ID   = 68137
ELEMENT_SET_NO = 999
REV_AT_EPOCH   = 87
BSTAR          = .4840452E-5
MEAN_MOTION_DOT = -.144E-5
MEAN_MOTION_DDOT = 0

CCSDS_OMM_VERS = 2.0
CREATION_DATE  = 
ORIGINATOR     = 

OBJECT_NAME    = SHIYAN-30 03
OBJECT_ID      = 2026-048A
CENTER_NAME    = EARTH
REF_FRAME      = TEME
TIME_SYSTEM    = UTC
MEAN_ELEMENT_THEORY = SGP/SGP4

EPOCH          = 2026-03-20T11:32:25.586880
MEAN_MOTION    = 14.91681671
ECCENTRICITY   = .0003964
INCLINATION    = 34.9999
RA_OF_ASC_NODE = 79.3724
ARG_OF_PERICENTER = 295.5947
MEAN_ANOMALY   = 64.4348

EPHEMERIS_TYPE = 0
CLASSIFICATION_TYPE = U
NORAD_CAT_ID   = 68139
ELEMENT_SET_NO = 999
REV_AT_EPOCH   = 111
BSTAR          = .24172E-3
MEAN_MOTION_DOT = .245E-4
MEAN_MOTION_DDOT = 0

